0 SJ-6A
1 28413U 04035A   13282.49091726  .00000997  00000-0  10323-3 0  2174
2 28413 097.8103 281.3159 0017855 166.7915 193.3786 14.92193345494261
0 SJ-6A
1 28413U 04035A   13282.82620189  .00001156  00000-0  11884-3 0  2184
2 28413 097.8105 281.6483 0017804 165.6287 194.5460 14.92194750494319
0 SJ-6A
1 28413U 04035A   13283.16148558  .00001221  00000-0  12511-3 0  2199
2 28413 097.8111 281.9803 0017793 164.5901 195.5869 14.92196020494364
0 SJ-6A
1 28413U 04035A   13283.29559913  .00001285  00000-0  13140-3 0  2205
2 28413 097.8110 282.1133 0017821 164.1201 196.0590 14.92196671494384
0 SJ-6A
1 28413U 04035A   13283.63088286  .00001302  00000-0  13306-3 0  2207
2 28413 097.8110 282.4457 0017837 162.9443 197.2371 14.92197593494437
0 SJ-6A
1 28413U 04035A   13283.83205331  .00001420  00000-0  14460-3 0  2215
2 28413 097.8114 282.6452 0017854 162.3160 197.8705 14.92198696494462
0 SJ-6A
1 28413U 04035A   13284.16733645  .00001402  00000-0  14284-3 0  2221
2 28413 097.8117 282.9775 0017827 161.1472 199.0415 14.92199691494513
0 SJ-6A
1 28413U 04035A   13284.50261952  .00001375  00000-0  14023-3 0  2237
2 28413 097.8116 283.3099 0017839 160.0892 200.1025 14.92200623494567
0 SJ-6A
1 28413U 04035A   13285.50846881  .00001226  00000-0  12563-3 0  2263
2 28413 097.8121 284.3074 0017896 156.9909 203.2109 14.92202501494714
0 SJ-6A
1 28413U 04035A   13285.84375211  .00001026  00000-0  10608-3 0  2271
2 28413 097.8121 284.6399 0017935 156.0265 204.1761 14.92202021494763
0 SJ-6A
1 28413U 04035A   13286.17903575  .00000837  00000-0  87571-4 0  2282
2 28413 097.8121 284.9726 0017960 154.8249 205.3839 14.92201924494812
0 SJ-6A
1 28413U 04035A   13286.51431896  .00000680  00000-0  72167-4 0  2294
2 28413 097.8120 285.3047 0017942 153.7856 206.4262 14.92201751494869
0 SJ-6A
1 28413U 04035A   13286.84960271  .00000490  00000-0  53580-4 0  2303
2 28413 097.8122 285.6374 0018008 152.8347 207.3813 14.92201132494917
0 SJ-6A
1 28413U 04035A   13287.18488599  .00000341  00000-0  38955-4 0  2314
2 28413 097.8120 285.9701 0018064 151.7252 208.4944 14.92200823494965
0 SJ-6A
1 28413U 04035A   13287.52016932  .00000201  00000-0  25280-4 0  2323
2 28413 097.8118 286.3023 0018053 150.7377 209.4849 14.92200459495016
0 SJ-6A
1 28413U 04035A   13287.85545313  .00000133  00000-0  18611-4 0  2334
2 28413 097.8117 286.6345 0018123 149.8235 210.4040 14.92200148495060
0 SJ-6A
1 28413U 04035A   13288.19073620  .00000101  00000-0  15521-4 0  2342
2 28413 097.8116 286.9674 0018122 148.6146 211.6166 14.92200271495119
0 SJ-6A
1 28413U 04035A   13288.52601901  .00000100  00000-0  15424-4 0  2350
2 28413 097.8115 287.2998 0018126 147.5442 212.6893 14.92200462495167
0 SJ-6A
1 28413U 04035A   13288.86130215  .00000215  00000-0  26704-4 0  2363
2 28413 097.8113 287.6322 0018207 146.5643 213.6750 14.92201109495210
0 SJ-6A
1 28413U 04035A   13289.19658436  .00000321  00000-0  37026-4 0  2378
2 28413 097.8109 287.9648 0018225 145.6395 214.6027 14.92201971495263
0 SJ-6A
1 28413U 04035A   13289.53186632  .00000403  00000-0  45017-4 0  2381
2 28413 097.8110 288.2973 0018321 144.5099 215.7347 14.92202740495314
0 SJ-6A
1 28413U 04035A   13289.86714924  .00000513  00000-0  55866-4 0  2394
2 28413 097.8107 288.6297 0018381 143.4311 216.8191 14.92203440495366
0 SJ-6A
1 28413U 04035A   13290.20243067  .00000642  00000-0  68491-4 0  2402
2 28413 097.8107 288.9621 0018406 142.4998 217.7524 14.92204629495414
0 SJ-6A
1 28413U 04035A   13290.33654326  .00000673  00000-0  71511-4 0  2412
2 28413 097.8106 289.0949 0018451 142.0990 218.1543 14.92205021495431
0 SJ-6A
1 28413U 04035A   13290.73888134  .00000754  00000-0  79403-4 0  2421
2 28413 097.8109 289.4943 0018438 140.5334 219.7215 14.92205828495496
0 SJ-6A
1 28413U 04035A   13290.87299441  .00000798  00000-0  83670-4 0  2433
2 28413 097.8110 289.6272 0018476 140.1985 220.0605 14.92206262495519
0 SJ-6A
1 28413U 04035A   13291.20827570  .00000882  00000-0  91871-4 0  2448
2 28413 097.8109 289.9595 0018489 139.2043 221.0583 14.92207384495563
0 SJ-6A
1 28413U 04035A   13291.54355654  .00000941  00000-0  97643-4 0  2454
2 28413 097.8110 290.2923 0018553 138.1128 222.1514 14.92208328495610
0 SJ-6A
1 28413U 04035A   13291.87883805  .00001005  00000-0  10396-3 0  2466
2 28413 097.8110 290.6246 0018582 137.0272 223.2414 14.92209176495660
0 SJ-6A
1 28413U 04035A   13292.21411878  .00001053  00000-0  10860-3 0  2472
2 28413 097.8111 290.9569 0018572 135.8951 224.3768 14.92210242495717
0 SJ-6A
1 28413U 04035A   13292.54939917  .00001142  00000-0  11734-3 0  2488
2 28413 097.8111 291.2895 0018668 134.7836 225.4926 14.92211548495762
0 SJ-6A
1 28413U 04035A   13292.88467934  .00001230  00000-0  12591-3 0  2491
2 28413 097.8111 291.6217 0018667 133.7387 226.5390 14.92212662495814
0 SJ-6A
1 28413U 04035A   13293.21995868  .00001337  00000-0  13644-3 0  2501
2 28413 097.8109 291.9544 0018672 132.8056 227.4741 14.92214213495865
0 SJ-6A
1 28413U 04035A   13293.55523825  .00001467  00000-0  14912-3 0  2512
2 28413 097.8108 292.2865 0018850 131.7272 228.5578 14.92215827495918
0 SJ-6A
1 28413U 04035A   13293.89051779  .00001520  00000-0  15425-3 0  2524
2 28413 097.8106 292.6188 0018860 130.8638 229.4248 14.92217018495968
0 SJ-6A
1 28413U 04035A   13294.22579629  .00001532  00000-0  15541-3 0  2534
2 28413 097.8106 292.9514 0018892 129.7550 230.5335 14.92218173496019
0 SJ-6A
1 28413U 04035A   13294.56107513  .00001538  00000-0  15600-3 0  2543
2 28413 097.8106 293.2837 0018904 128.7053 231.5863 14.92219346496067
0 SJ-6A
1 28413U 04035A   13294.89635378  .00001693  00000-0  17119-3 0  2554
2 28413 097.8109 293.6160 0018855 127.7015 232.5938 14.92221019496115
0 SJ-6A
1 28413U 04035A   13295.23163177  .00001591  00000-0  16121-3 0  2566
2 28413 097.8108 293.9485 0018891 126.6242 233.6710 14.92221712496162
0 SJ-6A
1 28413U 04035A   13295.49985434  .00001522  00000-0  15444-3 0  2574
2 28413 097.8109 294.2144 0018934 125.8436 234.4534 14.92222260496200
0 SJ-6A
1 28413U 04035A   13295.90218912  .00001442  00000-0  14663-3 0  2584
2 28413 097.8104 294.6131 0018945 124.5368 235.7663 14.92222914496266
0 SJ-6A
1 28413U 04035A   13296.23746658  .00001348  00000-0  13747-3 0  2592
2 28413 097.8106 294.9456 0018983 123.4426 236.8603 14.92223533496316
